start=new Date('2023-05-10T00:00:00.000Z').valueOf();
sats=[{"MEAN_MOTION_DOT":"0.00002885","SEMIMAJOR_AXIS":"6925.346","MEAN_ANOMALY":"265.7844","RCS_SIZE":"LARGE","CENTER_NAME":"EARTH","MEAN_ELEMENT_THEORY":"SGP4","TIME_SYSTEM":"UTC","BSTAR":"0.00021250000000","FILE":"3904553","OBJECT_ID":"2020-070AS","ECCENTRICITY":"0.00014910","EPHEMERIS_TYPE":"0","PERIAPSIS":"546.179","TLE_LINE2":"2 46572  53.0513 144.6737 0001491  94.3315 265.7844 15.06400758143443","CLASSIFICATION_TYPE":"U","INCLINATION":"53.0513","ELEMENT_SET_NO":"999","OBJECT_TYPE":"PAYLOAD","TLE_LINE1":"1 46572U 20070AS  23129.29510048  .00002885  00000-0  21250-3 0  9995","GP_ID":"231504257","OBJECT_NAME":"STARLINK-1531","LAUNCH_DATE":"2020-10-06","PERIOD":"95.592","EPOCH":"2023-05-09T07:04:56.681472","APOAPSIS":"548.244","MEAN_MOTION_DDOT":"0.0000000000000","ARG_OF_PERICENTER":"94.3315","REV_AT_EPOCH":"14344","DECAY_DATE":null,"SITE":"AFETR","NORAD_CAT_ID":"46572","COUNTRY_CODE":"US","RA_OF_ASC_NODE":"144.6737","MEAN_MOTION":"15.06400758","REF_FRAME":"TEME"},{"CENTER_NAME":"EARTH","MEAN_ELEMENT_THEORY":"SGP4","TIME_SYSTEM":"UTC","BSTAR":"0.00142990000000","RCS_SIZE":"LARGE","MEAN_ANOMALY":"116.5034","MEAN_MOTION_DOT":"0.00342956","SEMIMAJOR_AXIS":"6696.660","OBJECT_TYPE":"PAYLOAD","PERIAPSIS":"314.907","TLE_LINE2":"2 46573  53.0415  70.0861 0005402  92.9379 116.5034 15.84219659  1301","CLASSIFICATION_TYPE":"U","INCLINATION":"53.0415","ELEMENT_SET_NO":"999","EPHEMERIS_TYPE":"0","OBJECT_ID":"2020-070AT","FILE":"3904553","ECCENTRICITY":"0.00054020","PERIOD":"90.896","EPOCH":"2023-05-09T14:00:01.000224","LAUNCH_DATE":"2020-10-06","OBJECT_NAME":"STARLINK-1650","TLE_LINE1":"1 46573U 20070AT  23129.58334491  .00342956  00000-0  14299-2 0  9994","GP_ID":"231503019","MEAN_MOTION":"15.84219659","REF_FRAME":"TEME","NORAD_CAT_ID":"46573","RA_OF_ASC_NODE":"70.0861","COUNTRY_CODE":"US","ARG_OF_PERICENTER":"92.9379","REV_AT_EPOCH":"130","DECAY_DATE":null,"SITE":"AFETR","MEAN_MOTION_DDOT":"0.0000000000000","APOAPSIS":"322.142"},{"ELEMENT_SET_NO":"999","CLASSIFICATION_TYPE":"U","INCLINATION":"53.0533","TLE_LINE2":"2 46574  53.0533 129.8487 0001562  92.2388 267.8779 15.06398733143652","PERIAPSIS":"546.136","OBJECT_TYPE":"PAYLOAD","ECCENTRICITY":"0.00015620","FILE":"3904553","OBJECT_ID":"2020-070AU","EPHEMERIS_TYPE":"0","RCS_SIZE":"LARGE","TIME_SYSTEM":"UTC","BSTAR":"0.00014833000000","MEAN_ELEMENT_THEORY":"SGP4","CENTER_NAME":"EARTH","SEMIMAJOR_AXIS":"6925.352","MEAN_MOTION_DOT":"0.00001928","MEAN_ANOMALY":"267.8779","RA_OF_ASC_NODE":"129.8487","COUNTRY_CODE":"US","NORAD_CAT_ID":"46574","REF_FRAME":"TEME","MEAN_MOTION":"15.06398733","MEAN_MOTION_DDOT":"0.0000000000000","APOAPSIS":"548.299","SITE":"AFETR","DECAY_DATE":null,"REV_AT_EPOCH":"14365","ARG_OF_PERICENTER":"92.2388","LAUNCH_DATE":"2020-10-06","EPOCH":"2023-05-09T06:12:33.967872","PERIOD":"95.592","TLE_LINE1":"1 46574U 20070AU  23129.25872648  .00001928  00000-0  14833-3 0  9996","GP_ID":"231503770","OBJECT_NAME":"STARLINK-1660"},{"PERIAPSIS":"546.369","TLE_LINE2":"2 46575  53.0530 103.9991 0001176  92.1175 267.9948 15.06409844144024","CLASSIFICATION_TYPE":"U","INCLINATION":"53.0530","ELEMENT_SET_NO":"999","OBJECT_TYPE":"PAYLOAD","FILE":"3904553","ECCENTRICITY":"0.00011760","OBJECT_ID":"2020-070AV","EPHEMERIS_TYPE":"0","RCS_SIZE":"LARGE","CENTER_NAME":"EARTH","MEAN_ELEMENT_THEORY":"SGP4","TIME_SYSTEM":"UTC","BSTAR":"0.00058734000000","MEAN_MOTION_DOT":"0.00008480","SEMIMAJOR_AXIS":"6925.318","MEAN_ANOMALY":"267.9948","NORAD_CAT_ID":"46575","COUNTRY_CODE":"US","RA_OF_ASC_NODE":"103.9991","MEAN_MOTION":"15.06409844","REF_FRAME":"TEME","APOAPSIS":"547.998","MEAN_MOTION_DDOT":"0.0000000000000","ARG_OF_PERICENTER":"92.1175","DECAY_DATE":null,"REV_AT_EPOCH":"14402","SITE":"AFETR","LAUNCH_DATE":"2020-10-06","PERIOD":"95.592","EPOCH":"2023-05-09T10:43:54.655104","TLE_LINE1":"1 46575U 20070AV  23129.44716036  .00008480  00000-0  58734-3 0  9994","GP_ID":"231504020","OBJECT_NAME":"STARLINK-1675"},{"EPHEMERIS_TYPE":"0","ECCENTRICITY":"0.00013960","FILE":"3904553","OBJECT_ID":"2020-070AW","OBJECT_TYPE":"PAYLOAD","TLE_LINE2":"2 46576  53.0534 129.5846 0001396  90.0881 270.0268 15.06401804143664","PERIAPSIS":"546.241","ELEMENT_SET_NO":"999","CLASSIFICATION_TYPE":"U","INCLINATION":"53.0534","MEAN_ANOMALY":"270.0268","MEAN_MOTION_DOT":"0.00001534","SEMIMAJOR_AXIS":"6925.343","CENTER_NAME":"EARTH","BSTAR":"0.00012187000000","TIME_SYSTEM":"UTC","MEAN_ELEMENT_THEORY":"SGP4","RCS_SIZE":"LARGE","ARG_OF_PERICENTER":"90.0881","SITE":"AFETR","DECAY_DATE":null,"REV_AT_EPOCH":"14366","APOAPSIS":"548.175","MEAN_MOTION_DDOT":"0.0000000000000","REF_FRAME":"TEME","MEAN_MOTION":"15.06401804","NORAD_CAT_ID":"46576","RA_OF_ASC_NODE":"129.5846","COUNTRY_CODE":"US","OBJECT_NAME":"STARLINK-1677","TLE_LINE1":"1 46576U 20070AW  23129.31769535  .00001534  00000-0  12187-3 0  9998","GP_ID":"231504758","EPOCH":"2023-05-09T07:37:28.878240","PERIOD":"95.592","LAUNCH_DATE":"2020-10-06"},{"SITE":"AFETR","REV_AT_EPOCH":"14365","DECAY_DATE":null,"ARG_OF_PERICENTER":"84.4736","MEAN_MOTION_DDOT":"0.0000000000000","APOAPSIS":"548.089","REF_FRAME":"TEME","MEAN_MOTION":"15.06406018","RA_OF_ASC_NODE":"129.7518","COUNTRY_CODE":"US","NORAD_CAT_ID":"46577","OBJECT_NAME":"STARLINK-1682","TLE_LINE1":"1 46577U 20070AX  23129.28083786  .00003456  00000-0  25072-3 0  9994","GP_ID":"231503519","EPOCH":"2023-05-09T06:44:24.391104","PERIOD":"95.592","LAUNCH_DATE":"2020-10-06","EPHEMERIS_TYPE":"0","OBJECT_ID":"2020-070AX","FILE":"3904553","ECCENTRICITY":"0.00012910","OBJECT_TYPE":"PAYLOAD","ELEMENT_SET_NO":"999","INCLINATION":"53.0528","CLASSIFICATION_TYPE":"U","TLE_LINE2":"2 46577  53.0528 129.7518 0001291  84.4736 275.6400 15.06406018143656","PERIAPSIS":"546.301","MEAN_ANOMALY":"275.6400","SEMIMAJOR_AXIS":"6925.330","MEAN_MOTION_DOT":"0.00003456","BSTAR":"0.00025072000000","TIME_SYSTEM":"UTC","MEAN_ELEMENT_THEORY":"SGP4","CENTER_NAME":"EARTH","RCS_SIZE":"LARGE"},{"EPOCH":"2023-05-09T06:17:12.114528","PERIOD":"95.591","LAUNCH_DATE":"2020-10-06","OBJECT_NAME":"STARLINK-1683","GP_ID":"231503270","TLE_LINE1":"1 46578U 20070AY  23129.26194577  .00003036  00000-0  22255-3 0  9998","REF_FRAME":"TEME","MEAN_MOTION":"15.06410296","NORAD_CAT_ID":"46578","RA_OF_ASC_NODE":"114.8786","COUNTRY_CODE":"US","ARG_OF_PERICENTER":"82.8315","SITE":"AFETR","REV_AT_EPOCH":"14386","DECAY_DATE":null,"APOAPSIS":"547.941","MEAN_MOTION_DDOT":"0.0000000000000","CENTER_NAME":"EARTH","BSTAR":"0.00022255000000","TIME_SYSTEM":"UTC","MEAN_ELEMENT_THEORY":"SGP4","RCS_SIZE":"LARGE","MEAN_ANOMALY":"277.2798","MEAN_MOTION_DOT":"0.00003036","SEMIMAJOR_AXIS":"6925.317","OBJECT_TYPE":"PAYLOAD","TLE_LINE2":"2 46578  53.0525 114.8786 0001096  82.8315 277.2798 15.06410296143868","PERIAPSIS":"546.423","ELEMENT_SET_NO":"999","INCLINATION":"53.0525","CLASSIFICATION_TYPE":"U","EPHEMERIS_TYPE":"0","FILE":"3904553","ECCENTRICITY":"0.00010960","OBJECT_ID":"2020-070AY"},{"OBJECT_ID":"2020-070AZ","FILE":"3904553","ECCENTRICITY":"0.00014790","EPHEMERIS_TYPE":"0","CLASSIFICATION_TYPE":"U","INCLINATION":"53.0535","ELEMENT_SET_NO":"999","PERIAPSIS":"546.215","TLE_LINE2":"2 46579  53.0535 129.8091 0001479 101.8079 258.3076 15.06391566143653","OBJECT_TYPE":"PAYLOAD","SEMIMAJOR_AXIS":"6925.374","MEAN_MOTION_DOT":"0.00003544","MEAN_ANOMALY":"258.3076","RCS_SIZE":"LARGE","MEAN_ELEMENT_THEORY":"SGP4","TIME_SYSTEM":"UTC","BSTAR":"0.00025674000000","CENTER_NAME":"EARTH","MEAN_MOTION_DDOT":"0.0000000000000","APOAPSIS":"548.264","DECAY_DATE":null,"REV_AT_EPOCH":"14365","SITE":"AFETR","ARG_OF_PERICENTER":"101.8079","RA_OF_ASC_NODE":"129.8091","COUNTRY_CODE":"US","NORAD_CAT_ID":"46579","MEAN_MOTION":"15.06391566","REF_FRAME":"TEME","TLE_LINE1":"1 46579U 20070AZ  23129.26609375  .00003544  00000-0  25674-3 0  9998","GP_ID":"231504521","OBJECT_NAME":"STARLINK-1705","LAUNCH_DATE":"2020-10-06","PERIOD":"95.593","EPOCH":"2023-05-09T06:23:10.500000"},{"TLE_LINE2":"2 46580  53.0539 128.7175 0001342  96.2120 263.9022 15.06400019143694","PERIAPSIS":"546.284","ELEMENT_SET_NO":"999","INCLINATION":"53.0539","CLASSIFICATION_TYPE":"U","OBJECT_TYPE":"PAYLOAD","OBJECT_ID":"2020-070BA","FILE":"3904553","ECCENTRICITY":"0.00013420","EPHEMERIS_TYPE":"0","RCS_SIZE":"LARGE","CENTER_NAME":"EARTH","TIME_SYSTEM":"UTC","BSTAR":"0.00021494000000","MEAN_ELEMENT_THEORY":"SGP4","MEAN_MOTION_DOT":"0.00002921","SEMIMAJOR_AXIS":"6925.348","MEAN_ANOMALY":"263.9022","NORAD_CAT_ID":"46580","COUNTRY_CODE":"US","RA_OF_ASC_NODE":"128.7175","REF_FRAME":"TEME","MEAN_MOTION":"15.06400019","APOAPSIS":"548.143","MEAN_MOTION_DDOT":"0.0000000000000","ARG_OF_PERICENTER":"96.2120","SITE":"AFETR","REV_AT_EPOCH":"14369","DECAY_DATE":null,"LAUNCH_DATE":"2020-10-06","EPOCH":"2023-05-09T12:13:29.174016","PERIOD":"95.592","TLE_LINE1":"1 46580U 20070BA  23129.50936544  .00002921  00000-0  21494-3 0  9992","GP_ID":"231504258","OBJECT_NAME":"STARLINK-1708"},{"PERIOD":"95.591","EPOCH":"2023-05-09T11:23:43.372320","LAUNCH_DATE":"2020-10-06","OBJECT_NAME":"STARLINK-1712","GP_ID":"231503020","TLE_LINE1":"1 46581U 20070BB  23129.47480755  .00003515  00000-0  25469-3 0  9993","MEAN_MOTION":"15.06411343","REF_FRAME":"TEME","COUNTRY_CODE":"US","RA_OF_ASC_NODE":"123.8790","NORAD_CAT_ID":"46581","DECAY_DATE":null,"REV_AT_EPOCH":"14375","SITE":"AFETR","ARG_OF_PERICENTER":"85.1733","MEAN_MOTION_DDOT":"0.0000000000000","APOAPSIS":"548.217","MEAN_ELEMENT_THEORY":"SGP4","BSTAR":"0.00025469000000","TIME_SYSTEM":"UTC","CENTER_NAME":"EARTH","RCS_SIZE":"LARGE","MEAN_ANOMALY":"274.9427","SEMIMAJOR_AXIS":"6925.314","MEAN_MOTION_DOT":"0.00003515","OBJECT_TYPE":"PAYLOAD","INCLINATION":"53.0533","CLASSIFICATION_TYPE":"U","ELEMENT_SET_NO":"999","PERIAPSIS":"546.141","TLE_LINE2":"2 46581  53.0533 123.8790 0001499  85.1733 274.9427 15.06411343143758","EPHEMERIS_TYPE":"0","FILE":"3904553","ECCENTRICITY":"0.00014990","OBJECT_ID":"2020-070BB"}];
